{
  "type": "FeatureCollection",
  "features": [
    {
      "type": "Feature",
      "properties": {
        "norad_id": 35606,
        "name": "COSMOS 2251 DEB",
        "group": "cosmos-2251-debris",
        "lat": 70.80577483837543,
        "lon": 47.30954118968732,
        "alt_km": 1228.9198543576713,
        "timestamp": "2025-12-25T07:41:10.119701+00:00",
        "meta_object_name": "COSMOS 2251 DEB",
        "meta_object_id": "1993-036AMZ",
        "meta_epoch": "2025-12-23T17:40:03.776448",
        "meta_mean_motion": 13.41219482,
        "meta_eccentricity": 0.0456715,
        "meta_inclination": 73.8099,
        "meta_ra_of_asc_node": 353.2688,
        "meta_arg_of_pericenter": 197.3533,
        "meta_mean_anomaly": 161.1513,
        "meta_ephemeris_type": 0,
        "meta_classification_type": "U",
        "meta_norad_cat_id": 35606,
        "meta_element_set_no": 999,
        "meta_rev_at_epoch": 61187,
        "meta_bstar": 0.00021068754,
        "meta_mean_motion_dot": 1.94e-06,
        "meta_mean_motion_ddot": 0,
        "tle_line1": "1 35606U 93036AMZ 25357.73615482  .00000194  00000+0  21069-3 0  9993",
        "tle_line2": "2 35606  73.8099 353.2688 0456715 197.3533 161.1513 13.41219482611878"
      },
      "geometry": {
        "type": "Point",
        "coordinates": [
          47.30954118968732,
          70.80577483837543
        ]
      }
    },
    {
      "type": "Feature",
      "properties": {
        "norad_id": 35611,
        "name": "COSMOS 2251 DEB",
        "group": "cosmos-2251-debris",
        "lat": 49.05969977565209,
        "lon": 174.06465711087316,
        "alt_km": 661.2062243286646,
        "timestamp": "2025-12-25T07:41:10.119711+00:00",
        "meta_object_name": "COSMOS 2251 DEB",
        "meta_object_id": "1993-036ANE",
        "meta_epoch": "2025-12-19T11:16:40.848672",
        "meta_mean_motion": 14.73020971,
        "meta_eccentricity": 0.0021353,
        "meta_inclination": 74.0189,
        "meta_ra_of_asc_node": 166.1787,
        "meta_arg_of_pericenter": 238.9125,
        "meta_mean_anomaly": 120.9952,
        "meta_ephemeris_type": 0,
        "meta_classification_type": "U",
        "meta_norad_cat_id": 35611,
        "meta_element_set_no": 999,
        "meta_rev_at_epoch": 87389,
        "meta_bstar": 0.0015718,
        "meta_mean_motion_dot": 0.0001012,
        "meta_mean_motion_ddot": 0,
        "tle_line1": "1 35611U 93036ANE 25353.46991723  .00010120  00000+0  15718-2 0  9993",
        "tle_line2": "2 35611  74.0189 166.1787 0021353 238.9125 120.9952 14.73020971873894"
      },
      "geometry": {
        "type": "Point",
        "coordinates": [
          174.06465711087316,
          49.05969977565209
        ]
      }
    },
    {
      "type": "Feature",
      "properties": {
        "norad_id": 35614,
        "name": "COSMOS 2251 DEB",
        "group": "cosmos-2251-debris",
        "lat": -72.79774253243055,
        "lon": -168.60762819947936,
        "alt_km": 694.4229709126457,
        "timestamp": "2025-12-25T07:41:10.119720+00:00",
        "meta_object_name": "COSMOS 2251 DEB",
        "meta_object_id": "1993-036ANH",
        "meta_epoch": "2025-12-22T04:50:52.701504",
        "meta_mean_motion": 14.67087782,
        "meta_eccentricity": 0.00751415,
        "meta_inclination": 73.9595,
        "meta_ra_of_asc_node": 309.1128,
        "meta_arg_of_pericenter": 161.1452,
        "meta_mean_anomaly": 199.2529,
        "meta_ephemeris_type": 0,
        "meta_classification_type": "U",
        "meta_norad_cat_id": 35614,
        "meta_element_set_no": 999,
        "meta_rev_at_epoch": 87868,
        "meta_bstar": 0.00075496675,
        "meta_mean_motion_dot": 4.392e-05,
        "meta_mean_motion_ddot": 0,
        "tle_line1": "1 35614U 93036ANH 25356.20199886  .00004392  00000+0  75497-3 0  9996",
        "tle_line2": "2 35614  73.9595 309.1128 0075141 161.1452 199.2529 14.67087782878685"
      },
      "geometry": {
        "type": "Point",
        "coordinates": [
          -168.60762819947936,
          -72.79774253243055
        ]
      }
    },
    {
      "type": "Feature",
      "properties": {
        "norad_id": 35645,
        "name": "COSMOS 2251 DEB",
        "group": "cosmos-2251-debris",
        "lat": 73.51210901908648,
        "lon": 167.82181425637285,
        "alt_km": 761.5013174393316,
        "timestamp": "2025-12-25T07:41:10.119730+00:00",
        "meta_object_name": "COSMOS 2251 DEB",
        "meta_object_id": "1993-036ANL",
        "meta_epoch": "2025-12-24T21:17:02.930208",
        "meta_mean_motion": 14.45745322,
        "meta_eccentricity": 0.00696323,
        "meta_inclination": 73.9638,
        "meta_ra_of_asc_node": 64.9778,
        "meta_arg_of_pericenter": 221.3549,
        "meta_mean_anomaly": 138.2326,
        "meta_ephemeris_type": 0,
        "meta_classification_type": "U",
        "meta_norad_cat_id": 35645,
        "meta_element_set_no": 999,
        "meta_rev_at_epoch": 86947,
        "meta_bstar": 0.0019437792,
        "meta_mean_motion_dot": 7.076e-05,
        "meta_mean_motion_ddot": 0,
        "tle_line1": "1 35645U 93036ANL 25358.88683947  .00007076  00000+0  19438-2 0  9996",
        "tle_line2": "2 35645  73.9638  64.9778 0069632 221.3549 138.2326 14.45745322869470"
      },
      "geometry": {
        "type": "Point",
        "coordinates": [
          167.82181425637285,
          73.51210901908648
        ]
      }
    },
    {
      "type": "Feature",
      "properties": {
        "norad_id": 35646,
        "name": "COSMOS 2251 DEB",
        "group": "cosmos-2251-debris",
        "lat": -43.17876268003894,
        "lon": 20.312582162065894,
        "alt_km": 1448.5412817819542,
        "timestamp": "2025-12-25T07:41:10.119740+00:00",
        "meta_object_name": "COSMOS 2251 DEB",
        "meta_object_id": "1993-036ANM",
        "meta_epoch": "2025-12-24T19:59:26.255328",
        "meta_mean_motion": 13.40835272,
        "meta_eccentricity": 0.04558466,
        "meta_inclination": 73.8714,
        "meta_ra_of_asc_node": 36.8399,
        "meta_arg_of_pericenter": 144.9794,
        "meta_mean_anomaly": 337.3781,
        "meta_ephemeris_type": 0,
        "meta_classification_type": "U",
        "meta_norad_cat_id": 35646,
        "meta_element_set_no": 999,
        "meta_rev_at_epoch": 82020,
        "meta_bstar": 0.00039650264,
        "meta_mean_motion_dot": 3.84e-06,
        "meta_mean_motion_ddot": 0,
        "tle_line1": "1 35646U 93036ANM 25358.83294277  .00000384  00000+0  39650-3 0  9990",
        "tle_line2": "2 35646  73.8714  36.8399 0455846 144.9794 337.3781 13.40835272820203"
      },
      "geometry": {
        "type": "Point",
        "coordinates": [
          20.312582162065894,
          -43.17876268003894
        ]
      }
    },
    {
      "type": "Feature",
      "properties": {
        "norad_id": 35647,
        "name": "COSMOS 2251 DEB",
        "group": "cosmos-2251-debris",
        "lat": 68.43485544783464,
        "lon": -42.377853014938154,
        "alt_km": 726.8548801058996,
        "timestamp": "2025-12-25T07:41:10.119750+00:00",
        "meta_object_name": "COSMOS 2251 DEB",
        "meta_object_id": "1993-036ANN",
        "meta_epoch": "2025-12-24T03:04:08.125248",
        "meta_mean_motion": 14.43689782,
        "meta_eccentricity": 0.00461776,
        "meta_inclination": 74.0232,
        "meta_ra_of_asc_node": 273.3799,
        "meta_arg_of_pericenter": 9.8571,
        "meta_mean_anomaly": 350.348,
        "meta_ephemeris_type": 0,
        "meta_classification_type": "U",
        "meta_norad_cat_id": 35647,
        "meta_element_set_no": 999,
        "meta_rev_at_epoch": 67828,
        "meta_bstar": 0.0007860854,
        "meta_mean_motion_dot": 2.678e-05,
        "meta_mean_motion_ddot": 0,
        "tle_line1": "1 35647U 93036ANN 25358.12787182  .00002678  00000+0  78609-3 0  9990",
        "tle_line2": "2 35647  74.0232 273.3799 0046177   9.8571 350.3480 14.43689782678286"
      },
      "geometry": {
        "type": "Point",
        "coordinates": [
          -42.377853014938154,
          68.43485544783464
        ]
      }
    },
    {
      "type": "Feature",
      "properties": {
        "norad_id": 35650,
        "name": "COSMOS 2251 DEB",
        "group": "cosmos-2251-debris",
        "lat": -72.04798722825409,
        "lon": -124.04872846932878,
        "alt_km": 631.2598451377253,
        "timestamp": "2025-12-25T07:41:10.119760+00:00",
        "meta_object_name": "COSMOS 2251 DEB",
        "meta_object_id": "1993-036ANR",
        "meta_epoch": "2025-12-24T10:09:10.296576",
        "meta_mean_motion": 14.83923288,
        "meta_eccentricity": 0.00151483,
        "meta_inclination": 74.0477,
        "meta_ra_of_asc_node": 355.7395,
        "meta_arg_of_pericenter": 38.3431,
        "meta_mean_anomaly": 112.3443,
        "meta_ephemeris_type": 0,
        "meta_classification_type": "U",
        "meta_norad_cat_id": 35650,
        "meta_element_set_no": 999,
        "meta_rev_at_epoch": 87807,
        "meta_bstar": 0.0020058306,
        "meta_mean_motion_dot": 0.00016711,
        "meta_mean_motion_ddot": 0,
        "tle_line1": "1 35650U 93036ANR 25358.42303584  .00016711  00000+0  20058-2 0  9994",
        "tle_line2": "2 35650  74.0477 355.7395 0015148  38.3431 112.3443 14.83923288878074"
      },
      "geometry": {
        "type": "Point",
        "coordinates": [
          -124.04872846932878,
          -72.04798722825409
        ]
      }
    }
  ]
}